#aV2021 11  7  0  0  0.00000000     288 DD+AD WGS84 FIT  NGA
## 2183      0.00000000   300.00000000 59525 0.0000000000000
+   32     1  2  3  4  5  6  7  8  9 10 11 12 13 14 15 16 17
+         18 19 20 21 22 23 24 25 26 27 28 29 30 31 32  0  0
+          0  0  0  0  0  0  0  0  0  0  0  0  0  0  0  0  0
+          0  0  0  0  0  0  0  0  0  0  0  0  0  0  0  0  0
+          0  0  0  0  0  0  0  0  0  0  0  0  0  0  0  0  0
++         2  2  2  2  2  2  2  2  2  2  2  2  2  2  2  2  2
++         2  2  2  2  2  2  2  2  2  2  2  2  2  2  2  0  0
++         0  0  0  0  0  0  0  0  0  0  0  0  0  0  0  0  0
++         0  0  0  0  0  0  0  0  0  0  0  0  0  0  0  0  0
++         0  0  0  0  0  0  0  0  0  0  0  0  0  0  0  0  0
%c cc cc ccc ccc cccc cccc cccc cccc ccccc ccccc ccccc ccccc
%c cc cc ccc ccc cccc cccc cccc cccc ccccc ccccc ccccc ccccc
%f  0.0000000  0.000000000  0.00000000000  0.000000000000000
%f  0.0000000  0.000000000  0.00000000000  0.000000000000000
%i    0    0    0    0      0      0      0      0         0
%i    0    0    0    0      0      0      0      0         0
/*      NGA, ST. LOUIS,MO.                                  
/*   EPHEMERIS COMPUTED FROM 2 DAYS OF DATA                 
/*   EPOCHA v7 SMOOTHER                                     
/*   G2139 IERS2010 SATIGS SATAPC                           
*  2021 11  7 12  0  0.00000000
P  1   5798.021289  13905.561801 -22176.166316    517.504082                    
V  1 -27003.877533   4590.179953  -3908.690155     -0.105497                    
P  2  16959.502509 -14906.532356  14715.407147   -640.977417                    
V  2  17399.948459  -2665.326749 -23747.549254     -0.016334                    
P  3  11246.471846  22542.108506  -8682.117523     -7.725462                    
V  3  -8658.528562  -6873.399036 -29318.964941     -0.088003                    
P  4   1924.658462  22222.506658  14364.054527   -202.368073                    
V  4  -8811.527669  16151.349577 -23877.319886      0.007859                    
P  5   1168.119686 -18411.477029  18884.819574    -60.261574                    
V  5  17575.906470  16980.468541  15483.146992     -0.012677                    
P  6  25884.435401  -5809.865789   1890.740363    112.196695                    
V  6   2616.493359   1536.850588 -32143.054580      0.089355                    
P  7  20898.982470   7481.948318  15311.575877    274.523362                    
V  7 -18042.975352   4917.034288  22294.996233      0.055718                    
P  8  -5678.047725  25445.918323  -4070.176792    -43.180105                    
V  8  -4415.777717   3990.038034  31508.288078     -0.016068                    
P  9  10928.592429  12873.878013  20419.892104   -361.839248                    
V  9  -9405.694643  24398.223298 -10338.344372      0.001532                    
P 10 -20120.609563  -6799.316436 -16007.349700   -240.803731                    
V 10 -12015.334192 -16577.158561  21690.296238     -0.083853                    
P 11  19570.652109 -11828.437249  13489.890619     20.209976                    
V 11  17289.657409    157.401230 -24943.500425     -0.012109                    
P 12  -8420.845095 -23267.571422 -10084.886232   -122.832828                    
V 12   8935.713296   8808.031777 -28367.070082     -0.055342                    
P 13  13129.813589 -22929.340126   1538.466844    211.019712                    
V 13   1426.134119   3159.754190  31936.524119      0.056370                    
P 14  19931.411501   7190.481167 -16049.450728    -33.840385                    
V 14  10905.500218  17322.063131  21248.731593     -0.070427                    
P 15   2180.898505 -25903.299393  -4896.891272   -108.248403                    
V 15   5153.521152  -4789.196187  30411.167797      0.028037                    
P 16  -5869.160666  15707.740935  20228.481236   -420.070801                    
V 16 -16074.155110 -20907.217781  11879.116571     -0.063998                    
P 17  15822.435795  -1393.706224 -20853.516588    530.292497                    
V 17 -10254.873133  25463.078734  -9269.660708      0.053430                    
P 18 -21549.366481  -6453.318608  14192.290091    299.233869                    
V 18  17468.728021  -4631.376529  24307.842540     -0.056559                    
P 19  17735.709312  -9848.398771 -17317.300375     76.093116                    
V 19  -8140.828321  19947.367660 -20149.752868      0.050102                    
P 20  10701.796133 -11419.813499  21433.834010    518.250104                    
V 20  20452.161221  18159.331372   -798.319969     -0.001929                    
P 21  -3592.981161  15674.993555 -20343.679360    150.273343                    
V 21 -26970.371143   5728.639092   9435.539861      0.011671                    
P 22   5835.214342  21012.862473 -15129.292392   -470.575424                    
V 22 -15752.512871 -11745.483601 -21932.371192      0.091090                    
P 23 -20296.059529 -15873.032160  -6649.002469     35.797344                    
V 23  -3746.261587  -7899.896014  30309.182004     -0.044696                    
P 24  -1519.015323 -15942.425517 -21436.463009    264.317438                    
V 24  26004.844212  -6133.106067   3166.547973      0.045188                    
P 25 -16923.187776 -20663.421235   -709.041008    236.812212                    
V 25   2379.861372  -1268.708303 -31519.509909      0.059770                    
P 26 -16142.970786   4697.186815  20556.846198    152.918062                    
V 26 -17275.407508 -19795.554871  -8722.964641      0.038615                    
P 27 -12257.713060  22587.317635   5685.870349   -216.184590                    
V 27     59.434056  -7975.084403  31188.772909     -0.047442                    
P 28  16964.540272    639.978604 -19828.812704    467.567781                    
V 28  14081.885671  22386.928796  12639.802144     -0.074132                    
P 29  -6742.306499 -16699.347613  19456.838551   -437.265653                    
V 29  11074.792844 -22171.171698 -15220.271339     -0.053607                    
P 30  26065.815835    219.148454   5783.221870   -489.292707                    
V 30  -6645.802868   4317.325136  29910.984714     -0.032772                    
P 31 -25642.572249   6736.191189   3914.612296   -148.932676                    
V 31  -5368.290250  -1746.125423 -30826.671452     -0.019208                    
P 32 -16713.442411   5784.591464 -19645.211376    -19.052780                    
V 32   7141.568530 -24268.500820 -13323.220234     -0.045815                    
EOF
